{"spkid": "50615486", "covariance": {"elements": [{"title": "eccentricity", "value": ".2219874698667965", "units": null, "sigma": 3.51045572163124e-08, "name": "e", "label": "e"}, {"label": "q", "units": "au", "value": ".6685019462866577", "title": "perihelion distance", "sigma": 3.05976233279544e-08, "name": "q"}, {"units": "TDB", "value": "2458742.637430739711", "title": "time of perihelion passage", "sigma": 8.27551984396418e-06, "name": "tp", "label": "tp"}, {"label": "node", "name": "om", "sigma": 2.81200641877369e-05, "units": "deg", "title": "longitude of the ascending node", "value": "250.8320551173419"}, {"label": "peri", "value": "357.8597673863796", "title": "argument of perihelion", "units": "deg", "name": "w", "sigma": 3.16119935889755e-05}, {"sigma": 1.52839680240171e-06, "name": "i", "units": "deg", "title": "inclination", "value": "1.33129049171927", "label": "i"}], "data": [["1.232329937353349E-15", "-1.074029622868582E-15", "-1.522454084652331E-15", "1.07366803825449E-13", "-8.299547473524841E-14", "3.309463761456228E-14", "2.18358391336639E-23"], ["-1.074029622868582E-15", "9.362145533193767E-16", "-1.211415183458462E-16", "-9.179540563300755E-14", "6.938684260846972E-14", "-2.870120146855378E-14", "-1.831568380462971E-23"], ["-1.522454084652331E-15", "-1.211415183458462E-16", "6.848422868784487E-11", "-1.064209648546097E-10", "1.608195040332984E-10", "-1.738539851213554E-12", "-2.368947552387297E-21"], ["1.07366803825449E-13", "-9.179540563300755E-14", "-1.064209648546097E-10", "7.907380099224441E-10", "-8.726478777590823E-10", "6.641238096270173E-12", "-5.240235655868029E-21"], ["-8.299547473524841E-14", "6.938684260846972E-14", "1.608195040332984E-10", "-8.726478777590823E-10", "9.99318138669426E-10", "-7.582895934174729E-12", "5.048426493550562E-21"], ["3.309463761456228E-14", "-2.870120146855378E-14", "-1.738539851213554E-12", "6.641238096270173E-12", "-7.582895934174729E-12", "2.335996785591761E-12", "4.089983902147873E-22"], ["2.18358391336639E-23", "-1.831568380462971E-23", "-2.368947552387297E-21", "-5.240235655868029E-21", "5.048426493550562E-21", "4.089983902147873E-22", "7.644094289182114E-30"]], "labels": ["e", "q", "tp", "node", "peri", "i", "A2"], "epoch": "2458775.5"}, "elements": [{"title": "eccentricity", "value": ".223026561830186", "units": null, "sigma": "3.4272E-8", "name": "e", "label": "e"}, {"value": ".8586576944526018", "title": "semi-major axis", "units": "au", "name": "a", "sigma": "1.0003E-9", "label": "a"}, {"sigma": "2.9299E-8", "name": "q", "value": ".6671542210698035", "title": "perihelion distance", "units": "au", "label": "q"}, {"label": "i", "name": "i", "sigma": "1.5346E-6", "value": "1.288378171580574", "title": "inclination; angle with respect to x-y ecliptic plane", "units": "deg"}, {"label": "node", "units": "deg", "value": "248.8619406635128", "title": "longitude of the ascending node", "name": "om", "sigma": "2.9408E-5"}, {"title": "argument of perihelion", "value": "359.8652477882498", "units": "deg", "sigma": "3.276E-5", "name": "w", "label": "peri"}, {"sigma": "9.215E-6", "name": "ma", "title": "mean anomaly", "value": "159.6706435409862", "units": "deg", "label": "M"}, {"label": "tp", "name": "tp", "sigma": "7.5355E-6", "value": "2461071.600539161306", "title": "time of perihelion passage", "units": "TDB"}, {"label": "period", "title": "sidereal orbital period", "value": "290.6220258955637", "units": "d", "name": "per", "sigma": "5.0785E-7"}, {"sigma": "2.1646E-9", "name": "n", "value": "1.238722353856853", "title": "mean motion", "units": "deg/d", "label": "n"}, {"units": "au", "value": "1.0501611678354", "title": "aphelion distance", "sigma": "1.2234E-9", "name": "ad", "label": "Q"}], "epoch": "2461200.5"}